NLLOC "Null" "LOCATED" "Location completed."
HYPOCENTER  x 985.474 y 379.882 z 9.89258  OT 1.82961  ix -1 iy -1 iz -1 MAXIMUM_LIKELIHOOD
PHASE ID Ins Cmp On Pha  FM Date     HrMn   Sec     Err  ErrMag    Coda      Amp       Per  >   TTpred    Res       Weight    StaLoc(X  Y         Z)        SDist    SAzim  RAz  RDip RQual    Tcorr
YCH    ?    ?    ? S      ? 20151106 1812   12.4400 GAU  5.00e-01 -1.00e+00 -1.00e+00 -1.00e+00 >   12.1082   -1.1678    0.2735  915.4406  383.6106   -2.0230   70.1322 273.05  93.0 100.7  9    -0.3300
EP27   ?    ?    ? P      ? 20151106 1812   31.6500 GAU  5.00e-02 -1.00e+00 -1.00e+00 -1.00e+00 >   30.0780    0.2424    1.8665  810.3595  404.8944   -1.9780  176.8914 278.13  98.1  85.5  9    -0.5000
EP27   ?    ?    ? S      ? 20151106 1812   51.0700 GAU  1.00e-01 -1.00e+00 -1.00e+00 -1.00e+00 >   49.8770   -0.0266    1.5865  810.3595  404.8944   -1.9780  176.8914 278.13  98.1  95.0  9    -0.6100
EP07   ?    ?    ? P      ? 20151106 1812   57.0200 GAU  5.00e-01 -1.00e+00 -1.00e+00 -1.00e+00 >   55.5522   -0.3318    0.2735  683.5823  576.6695   -2.5570  360.3662 303.10 123.1  45.9 10    -0.0300
END_PHASE
END_NLLOC
